{"type": "FeatureCollection", "features": [ {"type": "Feature", "properties": {"norad_id": 31987, "name": "FENGYUN 1C DEB", "group": "fengyun-1c-debris", "lat": 56.11532023625534, "lon": -64.30354922841732, "alt_km": 761.1444268780406, "timestamp": "2025-12-02T10:50:47.559565+00:00", "meta": {"OBJECT_NAME": "FENGYUN 1C DEB", "OBJECT_ID": "1999-025CPQ", "EPOCH": "2025-12-01T21:32:31.967808", "MEAN_MOTION": 14.44788394, "ECCENTRICITY": 0.005098, "INCLINATION": 99.0376, "RA_OF_ASC_NODE": 308.8164, "ARG_OF_PERICENTER": 190.1677, "MEAN_ANOMALY": 225.8861, "EPHEMERIS_TYPE": 0, "CLASSIFICATION_TYPE": "U", "NORAD_CAT_ID": 31987, "ELEMENT_SET_NO": 999, "REV_AT_EPOCH": 96213, "BSTAR": 0.0011838, "MEAN_MOTION_DOT": 4.13e-05, "MEAN_MOTION_DDOT": 0}, "tle": {"line1": "1 31987U 99025CPQ 25335.89759222  .00004130  00000+0  11838-2 0  9995", "line2": "2 31987  99.0376 308.8164 0050980 190.1677 225.8861 14.44788394962132"}}, "geometry": {"type": "Point", "coordinates": [-64.30354922841732, 56.11532023625534]}}, {"type": "Feature", "properties": {"norad_id": 31989, "name": "FENGYUN 1C DEB", "group": "fengyun-1c-debris", "lat": 80.56943536876854, "lon": -64.58800215153472, "alt_km": 956.054295161779, "timestamp": "2025-12-02T10:50:47.559575+00:00", "meta": {"OBJECT_NAME": "FENGYUN 1C DEB", "OBJECT_ID": "1999-025CPS", "EPOCH": "2025-12-01T03:31:29.682048", "MEAN_MOTION": 13.93560032, "ECCENTRICITY": 0.01155015, "INCLINATION": 99.2147, "RA_OF_ASC_NODE": 36.3397, "ARG_OF_PERICENTER": 330.8082, "MEAN_ANOMALY": 56.337, "EPHEMERIS_TYPE": 0, "CLASSIFICATION_TYPE": "U", "NORAD_CAT_ID": 31989, "ELEMENT_SET_NO": 999, "REV_AT_EPOCH": 93556, "BSTAR": 0.00052076403, "MEAN_MOTION_DOT": 6.76e-06, "MEAN_MOTION_DDOT": 0}, "tle": {"line1": "1 31989U 99025CPS 25335.14687132  .00000676  00000+0  52076-3 0  9996", "line2": "2 31989  99.2147  36.3397 0115501 330.8082  56.3370 13.93560032935566"}}, "geometry": {"type": "Point", "coordinates": [-64.58800215153472, 80.56943536876854]}}, {"type": "Feature", "properties": {"norad_id": 31990, "name": "FENGYUN 1C DEB", "group": "fengyun-1c-debris", "lat": 80.79747485976215, "lon": -95.4641030827076, "alt_km": 1131.349524893485, "timestamp": "2025-12-02T10:50:47.559585+00:00", "meta": {"OBJECT_NAME": "FENGYUN 1C DEB", "OBJECT_ID": "1999-025CPT", "EPOCH": "2025-12-01T08:11:26.284416", "MEAN_MOTION": 13.57193977, "ECCENTRICITY": 0.02597842, "INCLINATION": 99.1613, "RA_OF_ASC_NODE": 358.6007, "ARG_OF_PERICENTER": 213.7422, "MEAN_ANOMALY": 215.9277, "EPHEMERIS_TYPE": 0, "CLASSIFICATION_TYPE": "U", "NORAD_CAT_ID": 31990, "ELEMENT_SET_NO": 999, "REV_AT_EPOCH": 62617, "BSTAR": 0.00032973615, "MEAN_MOTION_DOT": 2.52e-06, "MEAN_MOTION_DDOT": 0}, "tle": {"line1": "1 31990U 99025CPT 25335.34127644  .00000252  00000+0  32974-3 0  9992", "line2": "2 31990  99.1613 358.6007 0259784 213.7422 215.9277 13.57193977626175"}}, "geometry": {"type": "Point", "coordinates": [-95.4641030827076, 80.79747485976215]}}, {"type": "Feature", "properties": {"norad_id": 31991, "name": "FENGYUN 1C DEB", "group": "fengyun-1c-debris", "lat": -40.306847794153896, "lon": 173.71868407258685, "alt_km": 1123.83562280544, "timestamp": "2025-12-02T10:50:47.559597+00:00", "meta": {"OBJECT_NAME": "FENGYUN 1C DEB", "OBJECT_ID": "1999-025CPU", "EPOCH": "2025-11-30T07:53:43.812384", "MEAN_MOTION": 13.61273019, "ECCENTRICITY": 0.02446678, "INCLINATION": 100.4869, "RA_OF_ASC_NODE": 162.4011, "ARG_OF_PERICENTER": 83.8607, "MEAN_ANOMALY": 279.0346, "EPHEMERIS_TYPE": 0, "CLASSIFICATION_TYPE": "U", "NORAD_CAT_ID": 31991, "ELEMENT_SET_NO": 999, "REV_AT_EPOCH": 61918, "BSTAR": 0.00017193602, "MEAN_MOTION_DOT": 1.11e-06, "MEAN_MOTION_DDOT": 0}, "tle": {"line1": "1 31991U 99025CPU 25334.32897931  .00000111  00000+0  17194-3 0  9994", "line2": "2 31991 100.4869 162.4011 0244667  83.8607 279.0346 13.61273019619188"}}, "geometry": {"type": "Point", "coordinates": [173.71868407258685, -40.306847794153896]}}, {"type": "Feature", "properties": {"norad_id": 31992, "name": "FENGYUN 1C DEB", "group": "fengyun-1c-debris", "lat": -8.489843583990442, "lon": 116.15193464637392, "alt_km": 1449.9610328157623, "timestamp": "2025-12-02T10:50:47.559608+00:00", "meta": {"OBJECT_NAME": "FENGYUN 1C DEB", "OBJECT_ID": "1999-025CPV", "EPOCH": "2025-11-28T04:18:18.013824", "MEAN_MOTION": 13.22945767, "ECCENTRICITY": 0.05423475, "INCLINATION": 99.1642, "RA_OF_ASC_NODE": 293.7613, "ARG_OF_PERICENTER": 64.8199, "MEAN_ANOMALY": 300.815, "EPHEMERIS_TYPE": 0, "CLASSIFICATION_TYPE": "U", "NORAD_CAT_ID": 31992, "ELEMENT_SET_NO": 999, "REV_AT_EPOCH": 53682, "BSTAR": 0.0012217074, "MEAN_MOTION_DOT": 1.091e-05, "MEAN_MOTION_DDOT": 0}, "tle": {"line1": "1 31992U 99025CPV 25332.17937516  .00001091  00000+0  12217-2 0  9998", "line2": "2 31992  99.1642 293.7613 0542347  64.8199 300.8150 13.22945767536827"}}, "geometry": {"type": "Point", "coordinates": [116.15193464637392, -8.489843583990442]}}, {"type": "Feature", "properties": {"norad_id": 31993, "name": "FENGYUN 1C DEB", "group": "fengyun-1c-debris", "lat": 48.74707337377277, "lon": -60.90455311173234, "alt_km": 1253.698212903957, "timestamp": "2025-12-02T10:50:47.559618+00:00", "meta": {"OBJECT_NAME": "FENGYUN 1C DEB", "OBJECT_ID": "1999-025CPW", "EPOCH": "2025-12-01T16:29:33.990144", "MEAN_MOTION": 13.27422458, "ECCENTRICITY": 0.0421353, "INCLINATION": 99.2422, "RA_OF_ASC_NODE": 309.1092, "ARG_OF_PERICENTER": 162.492, "MEAN_ANOMALY": 199.1244, "EPHEMERIS_TYPE": 0, "CLASSIFICATION_TYPE": "U", "NORAD_CAT_ID": 31993, "ELEMENT_SET_NO": 999, "REV_AT_EPOCH": 88796, "BSTAR": 0.0012348, "MEAN_MOTION_DOT": 8.63e-06, "MEAN_MOTION_DDOT": 0}, "tle": {"line1": "1 31993U 99025CPW 25335.68719896  .00000863  00000+0  12348-2 0  9998", "line2": "2 31993  99.2422 309.1092 0421353 162.4920 199.1244 13.27422458887967"}}, "geometry": {"type": "Point", "coordinates": [-60.90455311173234, 48.74707337377277]}}, {"type": "Feature", "properties": {"norad_id": 31994, "name": "FENGYUN 1C DEB", "group": "fengyun-1c-debris", "lat": -65.83247712124756, "lon": 131.81626476923742, "alt_km": 878.8094133596933, "timestamp": "2025-12-02T10:50:47.559628+00:00", "meta": {"OBJECT_NAME": "FENGYUN 1C DEB", "OBJECT_ID": "1999-025CPX", "EPOCH": "2025-11-30T19:49:26.043168", "MEAN_MOTION": 13.95748964, "ECCENTRICITY": 0.01617781, "INCLINATION": 98.5385, "RA_OF_ASC_NODE": 329.8681, "ARG_OF_PERICENTER": 179.159, "MEAN_ANOMALY": 180.9876, "EPHEMERIS_TYPE": 0, "CLASSIFICATION_TYPE": "U", "NORAD_CAT_ID": 31994, "ELEMENT_SET_NO": 999, "REV_AT_EPOCH": 56630, "BSTAR": 4.9911834e-05, "MEAN_MOTION_DOT": 3.7e-07, "MEAN_MOTION_DDOT": 0}, "tle": {"line1": "1 31994U 99025CPX 25334.82599587  .00000037  00000+0  49912-4 0  9999", "line2": "2 31994  98.5385 329.8681 0161778 179.1590 180.9876 13.95748964566300"}}, "geometry": {"type": "Point", "coordinates": [131.81626476923742, -65.83247712124756]}}, {"type": "Feature", "properties": {"norad_id": 31997, "name": "FENGYUN 1C DEB", "group": "fengyun-1c-debris", "lat": 67.42496664205565, "lon": -15.185194232961477, "alt_km": 1172.5071312565688, "timestamp": "2025-12-02T10:50:47.559638+00:00", "meta": {"OBJECT_NAME": "FENGYUN 1C DEB", "OBJECT_ID": "1999-025CQA", "EPOCH": "2025-11-28T20:01:29.018496", "MEAN_MOTION": 13.60588243, "ECCENTRICITY": 0.02890667, "INCLINATION": 102.5117, "RA_OF_ASC_NODE": 12.4782, "ARG_OF_PERICENTER": 305.1916, "MEAN_ANOMALY": 52.2455, "EPHEMERIS_TYPE": 0, "CLASSIFICATION_TYPE": "U", "NORAD_CAT_ID": 31997, "ELEMENT_SET_NO": 999, "REV_AT_EPOCH": 61494, "BSTAR": 0.0021355848, "MEAN_MOTION_DOT": 2.054e-05, "MEAN_MOTION_DDOT": 0}, "tle": {"line1": "1 31997U 99025CQA 25332.83436364  .00002054  00000+0  21356-2 0  9995", "line2": "2 31997 102.5117  12.4782 0289066 305.1916  52.2455 13.60588243614945"}}, "geometry": {"type": "Point", "coordinates": [-15.185194232961477, 67.42496664205565]}}, {"type": "Feature", "properties": {"norad_id": 32086, "name": "FENGYUN 1C DEB", "group": "fengyun-1c-debris", "lat": 13.681544303385248, "lon": 29.46718035567061, "alt_km": 1191.7680570747752, "timestamp": "2025-12-02T10:50:47.559649+00:00", "meta": {"OBJECT_NAME": "FENGYUN 1C DEB", "OBJECT_ID": "1999-025CQC", "EPOCH": "2025-11-29T21:22:24.381408", "MEAN_MOTION": 13.68796405, "ECCENTRICITY": 0.03015011, "INCLINATION": 99.2704, "RA_OF_ASC_NODE": 29.2799, "ARG_OF_PERICENTER": 168.7326, "MEAN_ANOMALY": 192.0773, "EPHEMERIS_TYPE": 0, "CLASSIFICATION_TYPE": "U", "NORAD_CAT_ID": 32086, "ELEMENT_SET_NO": 999, "REV_AT_EPOCH": 61605, "BSTAR": 0.0024766711, "MEAN_MOTION_DOT": 2.889e-05, "MEAN_MOTION_DDOT": 0}, "tle": {"line1": "1 32086U 99025CQC 25333.89055997  .00002889  00000+0  24767-2 0  9996", "line2": "2 32086  99.2704  29.2799 0301501 168.7326 192.0773 13.68796405616059"}}, "geometry": {"type": "Point", "coordinates": [29.46718035567061, 13.681544303385248]}}, {"type": "Feature", "properties": {"norad_id": 32088, "name": "FENGYUN 1C DEB", "group": "fengyun-1c-debris", "lat": -50.47426765421179, "lon": -144.08667302078615, "alt_km": 1044.9395812265611, "timestamp": "2025-12-02T10:50:47.559658+00:00", "meta": {"OBJECT_NAME": "FENGYUN 1C DEB", "OBJECT_ID": "1999-025CQE", "EPOCH": "2025-11-30T21:02:32.746560", "MEAN_MOTION": 13.2510015, "ECCENTRICITY": 0.04607709, "INCLINATION": 102.4014, "RA_OF_ASC_NODE": 198.5687, "ARG_OF_PERICENTER": 22.3265, "MEAN_ANOMALY": 339.7217, "EPHEMERIS_TYPE": 0, "CLASSIFICATION_TYPE": "U", "NORAD_CAT_ID": 32088, "ELEMENT_SET_NO": 999, "REV_AT_EPOCH": 59687, "BSTAR": 0.0047399763, "MEAN_MOTION_DOT": 3.582e-05, "MEAN_MOTION_DDOT": 0}, "tle": {"line1": "1 32088U 99025CQE 25334.87676790  .00003582  00000+0  47400-2 0  9997", "line2": "2 32088 102.4014 198.5687 0460770  22.3265 339.7217 13.25100150596878"}}, "geometry": {"type": "Point", "coordinates": [-144.08667302078615, -50.47426765421179]}}]}